
NAVSTAR 69 (USA 248)    
1 39533U 14008A   24362.70957045  .00000100  00000+0  00000+0 0  9999
2 39533  53.6063 171.1863 0073751 220.6516 138.8075  2.00553239 78927
GPM-CORE                
1 39574U 14009C   24364.12884142  .00030276  00000+0  64779-3 0  9994
2 39574  64.9818 300.2936 0006344 257.9813 102.0616 15.44669613615183
EXPRESS-AT1             
1 39612U 14010A   24364.39840765  .00000106  00000+0  00000+0 0  9993
2 39612   0.0166 334.5599 0000307 120.8609 202.3431  1.00270966 39682
EXPRESS-AT2             
1 39613U 14010B   24364.52319793 -.00000254  00000+0  00000+0 0  9996
2 39613   0.0172 339.3613 0001197 314.3021 132.9952  1.00271627 39520
AMAZONAS 4A             
1 39616U 14011A   24364.44448942 -.00000225  00000+0  00000+0 0  9998
2 39616   0.0587 175.5509 0004147  92.5492 276.3029  1.00270333 39501
ASTRA 5B                
1 39617U 14011B   24364.32085840  .00000165  00000+0  00000+0 0  9992
2 39617   0.0495 332.0730 0004126 303.3004 321.8897  1.00272969 39501
COSMOS 2492 [GLONASS-M] 
1 39620U 14012A   24363.44355809 -.00000053  00000+0  00000+0 0  9991
2 39620  65.5902 332.0851 0014829 314.8536  45.0237  2.13103198 83825
SJ-11-06                
1 39624U 14014A   24364.46220254  .00001571  00000+0  32939-3 0  9990
2 39624  98.0103  39.0604 0013072 223.6656 136.3512 14.60965780572722
SENTINEL-1A             
1 39634U 14016A   24364.44196951  .00000571  00000+0  13089-3 0  9991
2 39634  98.1805   8.7188 0001253  89.7656 270.3688 14.59199506572065
IRNSS-1B                
1 39635U 14017A   24355.79702104  .00000117  00000+0  00000+0 0  9995
2 39635  29.0576 249.6668 0018335 182.9758 359.3652  1.00278866 39337
LUCH-5V                 
1 39727U 14023A   24364.12068561 -.00000245  00000+0  00000+0 0  9996
2 39727   3.7912  74.6094 0003863 218.1846 303.4389  1.00274209557149
KAZSAT-3                
1 39728U 14023B   24364.47081424  .00000088  00000+0  00000+0 0  9992
2 39728   0.0205  55.0007 0000184   2.0028 269.3946  1.00271788 39083
KAZEOSAT 1              
1 39731U 14024A   24364.46975102  .00000736  00000+0  23730-3 0  9990
2 39731  98.3785  77.5400 0000975 107.1266 253.0030 14.42051626561547
NAVSTAR 70 (USA 251)    
1 39741U 14026A   24362.99258678 -.00000070  00000+0  00000+0 0  9994
2 39741  56.6877 352.3549 0035824 315.0678  44.6608  2.00554623 77782
COSMOS 2496             
1 39761U 14028A   24364.11793356  .00000037  00000+0  19732-3 0  9999
2 39761  82.4452  83.8838 0020529 163.7435 196.4307 12.42881209481110
COSMOS 2497             
1 39762U 14028B   24363.84799713  .00000040  00000+0  21837-3 0  9995
2 39762  82.4499  85.5251 0021195 158.7004 201.4963 12.42896416481083
COSMOS 2498             
1 39763U 14028C   24364.10816298  .00000040  00000+0  21375-3 0  9991
2 39763  82.4461  84.0822 0021829 158.3385 201.8622 12.42954771481112
ALOS-2                  
1 39766U 14029A   24364.56914471  .00005519  00000+0  74511-3 0  9993
2 39766  97.9225  98.4159 0001428 103.5072 256.6299 14.79480360572562
UNIFORM 1               
1 39767U 14029B   24364.28701009  .00006964  00000+0  69841-3 0  9999
2 39767  97.8158  93.9273 0004105 294.2559  65.8230 14.91641066574379
SOCRATES                
1 39768U 14029C   24364.36485482  .00006350  00000+0  64433-3 0  9994
2 39768  97.8811 105.1020 0005485 321.5236  38.5591 14.91205865574594
RISING 2                
1 39769U 14029D   24364.43989495  .00012633  00000+0  13183-2 0  9992
2 39769  97.7178  73.0685 0002624 292.0546  68.0393 14.89864154573684
EUTELSAT 3B             
1 39773U 14030A   24363.46646778  .00000049  00000+0  00000+0 0  9994
2 39773   0.0602 357.7083 0004431 235.0949  35.6480  1.00270577 38697
COSMOS 2500 [GLONASS-M] 
1 40001U 14032A   24363.15110959 -.00000054  00000+0  00000+0 0  9992
2 40001  65.5270 331.8849 0007411 223.8122 136.1275  2.13106040 82036
KAZEOSAT 2              
1 40010U 14033A   24364.44942487  .00001904  00000+0  23480-3 0  9990
2 40010  97.5918 220.1215 0007858 287.8003  72.2354 14.83965767569611
HODOYOSHI-4             
1 40011U 14033B   24364.44479137  .00004664  00000+0  53995-3 0  9998
2 40011  97.5599 204.4778 0023164 276.7771  83.0809 14.85770065569345
UNISAT-6                
1 40012U 14033C   24364.14721461  .00006890  00000+0  83341-3 0  9997
2 40012  97.7188 159.3043 0050308  29.1778 331.2230 14.83089393566700
DEIMOS-2                
1 40013U 14033D   24364.51117246  .00005085  00000+0  52199-3 0  9991
2 40013  97.6564 245.2470 0001227  51.2131 308.9197 14.90824469570844
BUGSAT-1 (TITA)         
1 40014U 14033E   24364.41440444  .00009593  00000+0  61769-3 0  9991
2 40014  98.1006  56.1935 0032397 194.8818 165.1458 15.08155129575034
HODOYOSHI-3             
1 40015U 14033F   24364.42093316  .00004111  00000+0  50854-3 0  9999
2 40015  97.5955 180.3377 0033418 316.4547  43.4030 14.82885399568314
SAUDISAT 4              
1 40016U 14033G   24364.49285641  .00002177  00000+0  30239-3 0  9996
2 40016  97.6827 161.0205 0046367  15.3591 344.9016 14.78133488567065
APRIZESAT 9             
1 40018U 14033J   24364.29698650  .00002457  00000+0  37690-3 0  9993
2 40018  97.8278 142.5102 0068927 119.6160 241.1938 14.72899546564915
APRIZESAT 10            
1 40019U 14033K   24364.25437996  .00002658  00000+0  43271-3 0  9999
2 40019  97.8927 134.8553 0080430 181.2529 178.8488 14.69709618563829
BRITE-CA1 (TORONTO)     
1 40020U 14033L   24364.23216088  .00004249  00000+0  66931-3 0  9992
2 40020  97.9015 135.0011 0081124 188.1535 171.8359 14.70783503563632
DUCHIFAT-1              
1 40021U 14033M   24364.24325582  .00031775  00000+0  15500-2 0  9993
2 40021  98.0993 359.7388 0011310 145.0952 215.1024 15.18187561573601
NANOSATC-BR1            
1 40024U 14033Q   24363.68652815  .00023775  00000+0  14033-2 0  9996
2 40024  98.0823 345.2194 0003368 216.2571 143.8430 15.11528780573066
QB50P1                  
1 40025U 14033R   24364.14812410  .00017450  00000+0  12046-2 0  9993
2 40025  98.0654 332.4363 0009730 242.3432 117.6806 15.05810629572660
DTUSAT-2                
1 40030U 14033W   24363.54581843  .00014488  00000+0  10499-2 0  9993
2 40030  98.0361 322.1926 0007560 247.7036 112.3387 15.04047379571859
QB50P2                  
1 40032U 14033Y   24363.37533821  .00015781  00000+0  11411-2 0  9991
2 40032  98.0245 321.8871 0008538 181.5845 178.5355 15.04103243571803
PERSEUS-M2              
1 40037U 14033AD  24364.46677888  .00004494  00000+0  44339-3 0  9994
2 40037  97.9425 296.3291 0011115 272.2640  87.7306 14.92464386571434
PERSEUS-M1              
1 40039U 14033AF  24364.44707629  .00004772  00000+0  47166-3 0  9991
2 40039  97.9196 291.7839 0010799 271.6592  88.3389 14.92362649571295
POLYITAN-1              
1 40042U 14033AJ  24363.51124696  .00023290  00000+0  13856-2 0  9993
2 40042  98.0904 337.2007 0010168 185.8282 174.2830 15.11209662572602
TIGRISAT                
1 40043U 14033AK  24363.84514919  .00005490  00000+0  69170-3 0  9994
2 40043  97.7114 158.7448 0053565  29.7575 330.6666 14.81365486566551
LEMUR-1                 
1 40044U 14033AL  24363.42964781  .00005214  00000+0  65821-3 0  9998
2 40044  97.7156 157.8178 0052761  34.5256 325.9365 14.81341487566036
AEROCUBE 6A             
1 40045U 14033AM  24363.75085373  .00013321  00000+0  14066-2 0  9998
2 40045  97.6760 170.3683 0046153   1.8733 358.2649 14.88584438566927
AEROCUBE 6B             
1 40046U 14033AN  24363.46292513  .00012543  00000+0  12935-2 0  9991
2 40046  97.6729 168.9933 0044720 357.0119   3.0825 14.89599003566719
SPOT 7                  
1 40053U 14034A   24364.48920921  .00001636  00000+0  34994-3 0  9995
2 40053  98.1360  67.8311 0001513  92.3932 267.7441 14.60065014559103
CANX-4                  
1 40055U 14034C   24364.00630787  .00003518  00000+0  47853-3 0  9992
2 40055  98.3764 206.9153 0012121 291.0163  68.9750 14.79414906565374
CANX-5                  
1 40056U 14034D   24364.01011783  .00003427  00000+0  46629-3 0  9992
2 40056  98.3768 206.9328 0012111 291.1533  68.8383 14.79426386565370
OCO 2                   
1 40059U 14035A   24364.42565046  .00001696  00000+0  38610-3 0  9994
2 40059  98.2243 302.4269 0001681  73.6190 286.5193 14.57139765558185
GONETS-M 8              
1 40061U 14036A   24363.85923430  .00000021  00000+0  79186-4 0  9994
2 40061  82.5105 280.0952 0028699 237.1664 122.6652 12.42960844475957
GONETS-M 9              
1 40062U 14036B   24364.44940762  .00000028  00000+0  13398-3 0  9997
2 40062  82.5103 279.7901 0021969 242.6463 117.2381 12.42927760476024
GONETS-M 10             
1 40063U 14036C   24364.10790419  .00000037  00000+0  19398-3 0  9999
2 40063  82.5108 279.9942 0020724 228.9839 130.9449 12.42924915475978
METEOR-M 2              
1 40069U 14037A   24364.41689806  .00000453  00000+0  22737-3 0  9990
2 40069  98.4526 350.1088 0006355 141.8465 218.3163 14.21175689543356
DX1                     
1 40071U 14037C   24364.45455103  .00005304  00000+0  60040-3 0  9997
2 40071  98.3365 286.0442 0006801 201.4446 158.6484 14.86870065566637
SKYSAT-B                
1 40072U 14037D   24363.73764531  .00004240  00000+0  49685-3 0  9996
2 40072  98.3350 284.2315 0005088 201.9819 158.1177 14.85575647566479
UKUBE-1                 
1 40074U 14037F   24364.34291140  .00018917  00000+0  15085-2 0  9999
2 40074  98.3669 307.3169 0003241  95.5659 264.5932 15.00369454567978
AISSAT 2                
1 40075U 14037G   24363.84499917  .00006218  00000+0  65973-3 0  9999
2 40075  98.3442 292.9772 0004237 193.0432 167.0675 14.89449758567014
TECHDEMOSAT-1 (TDS-1)   
1 40076U 14037H   24363.40259809  .00016129  00000+0  12713-2 0  9991
2 40076  98.3298 298.5500 0004632 255.7762 104.2945 15.00851116567580
